{
  "norad_id": 62236,
  "name": "STARLINK-32641",
  "history": [
    {
      "epoch": "2026-03-28T19:09:40.431168",
      "apogee_km": 476.2869582176618,
      "perigee_km": 474.11129813041043,
      "latitude_deg": 35.10506836679026,
      "longitude_deg": 120.24492352013476,
      "semi_major_axis_km": 6853.336128174035,
      "eccentricity": 0.00015873,
      "inclination_deg": 53.1603,
      "raan_deg": 118.1111,
      "arg_perigee_deg": 80.5641,
      "mean_anomaly_deg": 279.5539,
      "mean_motion_rev_day": 15.30205339
    }
  ]
}